{"type": "FeatureCollection", "features": [ {"type": "Feature", "properties": {"norad_id": 33153, "name": "INTELSAT 25 (IS-25)", "group": "intelsat", "lat": -1.988856999600228, "lon": 19.08671335952127, "alt_km": 35794.60449906061, "timestamp": "2025-12-16T21:38:56.837712+00:00", "meta": {"OBJECT_NAME": "INTELSAT 25 (IS-25)", "OBJECT_ID": "2008-034A", "EPOCH": "2025-12-16T06:21:33.069312", "MEAN_MOTION": 1.00271243, "ECCENTRICITY": 0.00048424, "INCLINATION": 2.2365, "RA_OF_ASC_NODE": 82.6128, "ARG_OF_PERICENTER": 183.3491, "MEAN_ANOMALY": 243.089, "EPHEMERIS_TYPE": 0, "CLASSIFICATION_TYPE": "U", "NORAD_CAT_ID": 33153, "ELEMENT_SET_NO": 999, "REV_AT_EPOCH": 6386, "BSTAR": 0, "MEAN_MOTION_DOT": -2.02e-06, "MEAN_MOTION_DDOT": 0}, "tle": {"line1": "1 33153U 08034A   25350.26496608 -.00000202  00000+0  00000+0 0  9999", "line2": "2 33153   2.2365  82.6128 0004842 183.3491 243.0890  1.00271243 63868"}}, "geometry": {"type": "Point", "coordinates": [19.08671335952127, -1.988856999600228]}}, {"type": "Feature", "properties": {"norad_id": 33376, "name": "GALAXY 19 (G-19)", "group": "intelsat", "lat": 0.006526660168086433, "lon": -46.46624445060853, "alt_km": 35778.86482099441, "timestamp": "2025-12-16T21:38:56.837738+00:00", "meta": {"OBJECT_NAME": "GALAXY 19 (G-19)", "OBJECT_ID": "2008-045A", "EPOCH": "2025-12-16T08:57:18.281664", "MEAN_MOTION": 1.00271182, "ECCENTRICITY": 0.00025435, "INCLINATION": 0.0252, "RA_OF_ASC_NODE": 279.3994, "ARG_OF_PERICENTER": 347.5875, "MEAN_ANOMALY": 215.6068, "EPHEMERIS_TYPE": 0, "CLASSIFICATION_TYPE": "U", "NORAD_CAT_ID": 33376, "ELEMENT_SET_NO": 999, "REV_AT_EPOCH": 6307, "BSTAR": 0, "MEAN_MOTION_DOT": -1.16e-06, "MEAN_MOTION_DDOT": 0}, "tle": {"line1": "1 33376U 08045A   25350.37312826 -.00000116  00000+0  00000+0 0  9993", "line2": "2 33376   0.0252 279.3994 0002543 347.5875 215.6068  1.00271182 63075"}}, "geometry": {"type": "Point", "coordinates": [-46.46624445060853, 0.006526660168086433]}}, {"type": "Feature", "properties": {"norad_id": 35493, "name": "FM-5", "group": "intelsat", "lat": 0.010100798433963994, "lon": -35.629513405398164, "alt_km": 35790.17128806891, "timestamp": "2025-12-16T21:38:56.837779+00:00", "meta": {"OBJECT_NAME": "FM-5", "OBJECT_ID": "2009-034A", "EPOCH": "2025-12-16T08:14:38.704128", "MEAN_MOTION": 1.00270421, "ECCENTRICITY": 8.8e-05, "INCLINATION": 0.0228, "RA_OF_ASC_NODE": 289.0437, "ARG_OF_PERICENTER": 222.1533, "MEAN_ANOMALY": 331.5611, "EPHEMERIS_TYPE": 0, "CLASSIFICATION_TYPE": "U", "NORAD_CAT_ID": 35493, "ELEMENT_SET_NO": 999, "REV_AT_EPOCH": 4481, "BSTAR": 0, "MEAN_MOTION_DOT": -1.77e-06, "MEAN_MOTION_DDOT": 0}, "tle": {"line1": "1 35493U 09034A   25350.34350352 -.00000177  00000+0  00000+0 0  9994", "line2": "2 35493   0.0228 289.0437 0000880 222.1533 331.5611  1.00270421 44819"}}, "geometry": {"type": "Point", "coordinates": [-35.629513405398164, 0.010100798433963994]}}, {"type": "Feature", "properties": {"norad_id": 36097, "name": "INTELSAT 14 (IS-14)", "group": "intelsat", "lat": 0.024741376422657006, "lon": 5.550615470344746, "alt_km": 35786.27839320303, "timestamp": "2025-12-16T21:38:56.837797+00:00", "meta": {"OBJECT_NAME": "INTELSAT 14 (IS-14)", "OBJECT_ID": "2009-064A", "EPOCH": "2025-12-16T06:17:40.939296", "MEAN_MOTION": 1.00272647, "ECCENTRICITY": 0.00024567, "INCLINATION": 0.0154, "RA_OF_ASC_NODE": 312.8675, "ARG_OF_PERICENTER": 320.7393, "MEAN_ANOMALY": 220.979, "EPHEMERIS_TYPE": 0, "CLASSIFICATION_TYPE": "U", "NORAD_CAT_ID": 36097, "ELEMENT_SET_NO": 999, "REV_AT_EPOCH": 5877, "BSTAR": 0, "MEAN_MOTION_DOT": -2.5e-06, "MEAN_MOTION_DDOT": 0}, "tle": {"line1": "1 36097U 09064A   25350.26227939 -.00000250  00000+0  00000+0 0  9995", "line2": "2 36097   0.0154 312.8675 0002456 320.7393 220.9790  1.00272647 58778"}}, "geometry": {"type": "Point", "coordinates": [5.550615470344746, 0.024741376422657006]}}, {"type": "Feature", "properties": {"norad_id": 36106, "name": "INTELSAT 15 (IS-15)", "group": "intelsat", "lat": 0.008570649133904932, "lon": 135.65051469714717, "alt_km": 35793.15993476586, "timestamp": "2025-12-16T21:38:56.837810+00:00", "meta": {"OBJECT_NAME": "INTELSAT 15 (IS-15)", "OBJECT_ID": "2009-067A", "EPOCH": "2025-12-16T03:33:38.801664", "MEAN_MOTION": 1.0027187, "ECCENTRICITY": 0.00021891, "INCLINATION": 0.0138, "RA_OF_ASC_NODE": 322.1911, "ARG_OF_PERICENTER": 313.207, "MEAN_ANOMALY": 308.2126, "EPHEMERIS_TYPE": 0, "CLASSIFICATION_TYPE": "U", "NORAD_CAT_ID": 36106, "ELEMENT_SET_NO": 999, "REV_AT_EPOCH": 3939, "BSTAR": 0, "MEAN_MOTION_DOT": -1.62e-06, "MEAN_MOTION_DDOT": 0}, "tle": {"line1": "1 36106U 09067A   25350.14836576 -.00000162  00000+0  00000+0 0  9991", "line2": "2 36106   0.0138 322.1911 0002189 313.2070 308.2126  1.00271870 39397"}}, "geometry": {"type": "Point", "coordinates": [135.65051469714717, 0.008570649133904932]}}, {"type": "Feature", "properties": {"norad_id": 36131, "name": "DIRECTV 12", "group": "intelsat", "lat": -0.017181226864211578, "lon": -52.207354021143395, "alt_km": 35784.9673858045, "timestamp": "2025-12-16T21:38:56.837831+00:00", "meta": {"OBJECT_NAME": "DIRECTV 12", "OBJECT_ID": "2009-075A", "EPOCH": "2025-12-16T04:18:29.854080", "MEAN_MOTION": 1.00272156, "ECCENTRICITY": 5.45e-05, "INCLINATION": 0.0472, "RA_OF_ASC_NODE": 156.8262, "ARG_OF_PERICENTER": 214.2418, "MEAN_ANOMALY": 35.9165, "EPHEMERIS_TYPE": 0, "CLASSIFICATION_TYPE": "U", "NORAD_CAT_ID": 36131, "ELEMENT_SET_NO": 999, "REV_AT_EPOCH": 4471, "BSTAR": 0, "MEAN_MOTION_DOT": -8e-07, "MEAN_MOTION_DDOT": 0}, "tle": {"line1": "1 36131U 09075A   25350.17951220 -.00000080  00000+0  00000+0 0  9994", "line2": "2 36131   0.0472 156.8262 0000545 214.2418  35.9165  1.00272156 44714"}}, "geometry": {"type": "Point", "coordinates": [-52.207354021143395, -0.017181226864211578]}}, {"type": "Feature", "properties": {"norad_id": 36397, "name": "INTELSAT 16 (IS-16)", "group": "intelsat", "lat": -0.0014841755801686726, "lon": -25.666956915469154, "alt_km": 35782.96337985337, "timestamp": "2025-12-16T21:38:56.837843+00:00", "meta": {"OBJECT_NAME": "INTELSAT 16 (IS-16)", "OBJECT_ID": "2010-006A", "EPOCH": "2025-12-16T06:08:49.287264", "MEAN_MOTION": 1.00271232, "ECCENTRICITY": 0.00019011, "INCLINATION": 0.0105, "RA_OF_ASC_NODE": 335.0142, "ARG_OF_PERICENTER": 293.8355, "MEAN_ANOMALY": 192.3088, "EPHEMERIS_TYPE": 0, "CLASSIFICATION_TYPE": "U", "NORAD_CAT_ID": 36397, "ELEMENT_SET_NO": 999, "REV_AT_EPOCH": 5782, "BSTAR": 0, "MEAN_MOTION_DOT": -2.21e-06, "MEAN_MOTION_DDOT": 0}, "tle": {"line1": "1 36397U 10006A   25350.25612601 -.00000221  00000+0  00000+0 0  9997", "line2": "2 36397   0.0105 335.0142 0001901 293.8355 192.3088  1.00271232 57821"}}, "geometry": {"type": "Point", "coordinates": [-25.666956915469154, -0.0014841755801686726]}}, {"type": "Feature", "properties": {"norad_id": 37185, "name": "XM-5", "group": "intelsat", "lat": 0.009614716763313906, "lon": -64.66271334769404, "alt_km": 35793.14500832808, "timestamp": "2025-12-16T21:38:56.837855+00:00", "meta": {"OBJECT_NAME": "XM-5", "OBJECT_ID": "2010-053A", "EPOCH": "2025-12-15T23:06:47.841408", "MEAN_MOTION": 1.00271955, "ECCENTRICITY": 0.0001983, "INCLINATION": 0.0651, "RA_OF_ASC_NODE": 271.9407, "ARG_OF_PERICENTER": 234.5362, "MEAN_ANOMALY": 169.8969, "EPHEMERIS_TYPE": 0, "CLASSIFICATION_TYPE": "U", "NORAD_CAT_ID": 37185, "ELEMENT_SET_NO": 999, "REV_AT_EPOCH": 5564, "BSTAR": 0, "MEAN_MOTION_DOT": -1e-08, "MEAN_MOTION_DDOT": 0}, "tle": {"line1": "1 37185U 10053A   25349.96305372 -.00000001  00000+0  00000+0 0  9991", "line2": "2 37185   0.0651 271.9407 0001983 234.5362 169.8969  1.00271955 55642"}}, "geometry": {"type": "Point", "coordinates": [-64.66271334769404, 0.009614716763313906]}}, {"type": "Feature", "properties": {"norad_id": 37238, "name": "INTELSAT 17 (IS-17)", "group": "intelsat", "lat": 0.008730566077136273, "lon": 116.50448504789213, "alt_km": 35795.746999430135, "timestamp": "2025-12-16T21:38:56.837868+00:00", "meta": {"OBJECT_NAME": "INTELSAT 17 (IS-17)", "OBJECT_ID": "2010-065B", "EPOCH": "2025-12-16T05:06:40.240800", "MEAN_MOTION": 1.00271909, "ECCENTRICITY": 0.00025845, "INCLINATION": 0.011, "RA_OF_ASC_NODE": 293.144, "ARG_OF_PERICENTER": 336.1973, "MEAN_ANOMALY": 318.4399, "EPHEMERIS_TYPE": 0, "CLASSIFICATION_TYPE": "U", "NORAD_CAT_ID": 37238, "ELEMENT_SET_NO": 999, "REV_AT_EPOCH": 5141, "BSTAR": 0, "MEAN_MOTION_DOT": 2.1e-07, "MEAN_MOTION_DDOT": 0}, "tle": {"line1": "1 37238U 10065B   25350.21296575  .00000021  00000+0  00000+0 0  9998", "line2": "2 37238   0.0110 293.1440 0002584 336.1973 318.4399  1.00271909 51418"}}, "geometry": {"type": "Point", "coordinates": [116.50448504789213, 0.008730566077136273]}}, {"type": "Feature", "properties": {"norad_id": 37392, "name": "INTELSAT 28 (IS-28)", "group": "intelsat", "lat": -1.2055032094941918, "lon": 18.880279072989456, "alt_km": 35791.905506930154, "timestamp": "2025-12-16T21:38:56.837880+00:00", "meta": {"OBJECT_NAME": "INTELSAT 28 (IS-28)", "OBJECT_ID": "2011-016A", "EPOCH": "2025-12-16T06:21:25.580160", "MEAN_MOTION": 1.002709, "ECCENTRICITY": 0.00037014, "INCLINATION": 1.3335, "RA_OF_ASC_NODE": 85.0139, "ARG_OF_PERICENTER": 183.903, "MEAN_ANOMALY": 239.9213, "EPHEMERIS_TYPE": 0, "CLASSIFICATION_TYPE": "U", "NORAD_CAT_ID": 37392, "ELEMENT_SET_NO": 999, "REV_AT_EPOCH": 5145, "BSTAR": 0, "MEAN_MOTION_DOT": -2.02e-06, "MEAN_MOTION_DDOT": 0}, "tle": {"line1": "1 37392U 11016A   25350.26487940 -.00000202  00000+0  00000+0 0  9991", "line2": "2 37392   1.3335  85.0139 0003701 183.9030 239.9213  1.00270900 51455"}}, "geometry": {"type": "Point", "coordinates": [18.880279072989456, -1.2055032094941918]}}]}